ONEWEB-0168             
1 48068U 21025AC  24042.29649458  .00000286  00000+0  74886-3 0  9996
2 48068  87.9001 130.7730 0001664 106.6135 253.5177 13.13470343141075
ONEWEB-0173             
1 48069U 21025AD  24042.28855779  .00000074  00000+0  16735-3 0  9995
2 48069  87.9001 130.7851 0001423  91.7186 268.4106 13.13470717141312
ONEWEB-0171             
1 48070U 21025AE  24042.24888051  .00000153  00000+0  38475-3 0  9995
2 48070  87.9002 130.8277 0001745  99.6667 260.4659 13.13469861141128
ONEWEB-0172             
1 48071U 21025AF  24042.76149911  .00000253  00000+0  65862-3 0  9999
2 48071  87.9001 130.6927 0001704  97.8122 262.3201 13.13470069142081
ONEWEB-0174             
1 48072U 21025AG  24042.74403959 -.00000097  00000+0 -29989-3 0  9991
2 48072  87.8999 130.7104 0001705 109.8222 250.3091 13.13469123141409
ONEWEB-0175             
1 48073U 21025AH  24042.23936428  .00000406  00000+0  10776-2 0  9993
2 48073  87.8996 130.8069 0002005  94.5969 265.5389 13.13470055140997
ONEWEB-0177             
1 48074U 21025AJ  24042.25205029  .00000096  00000+0  22780-3 0  9996
2 48074  87.8997 130.8100 0001294 104.1447 255.9826 13.13469859141184
ONEWEB-0178             
1 48075U 21025AK  24042.26964845 -.00000248  00000+0 -71535-3 0  9999
2 48075  87.9004 130.8155 0001534 105.4391 254.6907 13.13470631141236
